ONEWEB-0275             
1 48993U 21060AC  24224.90840296  .00000161  00000+0  38710-3 0  9993
2 48993  87.9144   3.0249 0001582  98.8967 261.2343 13.16592781150830
ONEWEB-0276             
1 48994U 21060AD  24224.94165753  .00000020  00000+0  19407-4 0  9993
2 48994  87.9142   3.0143 0001502 100.9666 259.1633 13.16593104150855
ONEWEB-0277             
1 48995U 21060AE  24224.80232355 -.00000026  00000+0 -10111-3 0  9992
2 48995  87.9144   3.0801 0001240  95.1248 265.0024 13.16592756150828
ONEWEB-0278             
1 48996U 21060AF  24224.94481671  .00000095  00000+0  21490-3 0  9991
2 48996  87.9142   3.0105 0001948 105.3887 254.7460 13.16593874150979
ONEWEB-0279             
1 48997U 21060AG  24224.64875336  .00000042  00000+0  77266-4 0  9999
2 48997  87.9143   3.0669 0001370  92.3168 267.8120 13.16593609150864
ONEWEB-0280             
1 48998U 21060AH  24224.81499450  .00000033  00000+0  53125-4 0  9996
2 48998  87.9144   3.0358 0001690 104.9514 255.1804 13.16593348150826
ONEWEB-0281             
1 48999U 21060AJ  24224.89731964  .00000089  00000+0  20018-3 0  9999
2 48999  87.9142   3.0210 0001834  90.4399 269.6942 13.16595809150908
ONEWEB-0282             
1 49000U 21060AK  24224.92740077  .00000046  00000+0  87615-4 0  9992
2 49000  87.9143   3.0317 0001472 102.4829 257.6467 13.16592493150883
